[{"OBJECT_NAME":"STARLINK-31091","OBJECT_ID":"2023-203M","EPOCH":"2026-03-09T01:35:15.517248","MEAN_MOTION":15.27574347,"ECCENTRICITY":6.794e-5,"INCLINATION":43.0022,"RA_OF_ASC_NODE":74.2534,"ARG_OF_PERICENTER":241.6419,"MEAN_ANOMALY":118.4364,"EPHEMERIS_TYPE":0,"CLASSIFICATION_TYPE":"U","NORAD_CAT_ID":58629,"ELEMENT_SET_NO":999,"REV_AT_EPOCH":12342,"BSTAR":-1.5186276e-5,"MEAN_MOTION_DOT":-6.8e-6,"MEAN_MOTION_DDOT":0},{"OBJECT_NAME":"FLOCK 4G-12","OBJECT_ID":"2025-009S","EPOCH":"2026-03-09T17:16:21.445824","MEAN_MOTION":15.27059194,"ECCENTRICITY":0.00028933,"INCLINATION":97.4059,"RA_OF_ASC_NODE":151.1894,"ARG_OF_PERICENTER":310.1775,"MEAN_ANOMALY":49.9211,"EPHEMERIS_TYPE":0,"CLASSIFICATION_TYPE":"U","NORAD_CAT_ID":62625,"ELEMENT_SET_NO":999,"REV_AT_EPOCH":6371,"BSTAR":0.00043519262,"MEAN_MOTION_DOT":0.00011487,"MEAN_MOTION_DDOT":0}]
